start=new Date('2021-12-01T00:00:00.000Z').valueOf();
sats=[{"MEAN_MOTION_DDOT":"0.0000000000000","TLE_LINE2":"2 47673  53.0538 216.0822 0002134  76.3224 283.8002 15.06388749 45089","APOAPSIS":"548.726","LAUNCH_DATE":"2021-02-16","RA_OF_ASC_NODE":"216.0822","SEMIMAJOR_AXIS":"6925.383","OBJECT_ID":"2021-012BF","CLASSIFICATION_TYPE":"U","INCLINATION":"53.0538","BSTAR":"-0.00002651500000","GP_ID":"190816028","SITE":"AFETR","EPOCH":"2021-11-30T09:17:51.853344","OBJECT_NAME":"STARLINK-2066","PERIOD":"95.593","MEAN_ANOMALY":"283.8002","NORAD_CAT_ID":"47673","TLE_LINE1":"1 47673U 21012BF  21334.38740571 -.00000677  00000-0 -26515-4 0  9996","ARG_OF_PERICENTER":"76.3224","EPHEMERIS_TYPE":"0","REV_AT_EPOCH":"4508","PERIAPSIS":"545.770","MEAN_ELEMENT_THEORY":"SGP4","ECCENTRICITY":"0.00021340","REF_FRAME":"TEME","RCS_SIZE":"LARGE","OBJECT_TYPE":"PAYLOAD","DECAY_DATE":null,"COUNTRY_CODE":"US","CENTER_NAME":"EARTH","TIME_SYSTEM":"UTC","FILE":"3228256","MEAN_MOTION":"15.06388749","MEAN_MOTION_DOT":"-0.00000677","ELEMENT_SET_NO":"999"},{"ECCENTRICITY":"0.00019740","FILE":"3228256","TIME_SYSTEM":"UTC","CENTER_NAME":"EARTH","DECAY_DATE":null,"COUNTRY_CODE":"US","RCS_SIZE":"LARGE","REF_FRAME":"TEME","OBJECT_TYPE":"PAYLOAD","MEAN_MOTION":"15.06398430","ELEMENT_SET_NO":"999","MEAN_MOTION_DOT":"0.00000956","SEMIMAJOR_AXIS":"6925.353","RA_OF_ASC_NODE":"213.6270","LAUNCH_DATE":"2021-02-16","APOAPSIS":"548.585","MEAN_MOTION_DDOT":"0.0000000000000","TLE_LINE2":"2 47674  53.0540 213.6270 0001974  71.8901 288.2303 15.06398430 45177","CLASSIFICATION_TYPE":"U","OBJECT_ID":"2021-012BG","MEAN_ANOMALY":"288.2303","PERIOD":"95.592","OBJECT_NAME":"STARLINK-2067","EPOCH":"2021-11-30T22:23:24.480672","GP_ID":"190816278","BSTAR":"0.00008306000000","SITE":"AFETR","INCLINATION":"53.0540","MEAN_ELEMENT_THEORY":"SGP4","PERIAPSIS":"545.851","REV_AT_EPOCH":"4517","EPHEMERIS_TYPE":"0","ARG_OF_PERICENTER":"71.8901","TLE_LINE1":"1 47674U 21012BG  21334.93292223  .00000956  00000-0  83060-4 0  9990","NORAD_CAT_ID":"47674"},{"OBJECT_NAME":"STARLINK-2078","EPOCH":"2021-11-30T22:12:48.032352","MEAN_ANOMALY":"289.8282","PERIOD":"95.593","INCLINATION":"53.0547","GP_ID":"190817529","SITE":"AFETR","BSTAR":"0.00001478300000","REV_AT_EPOCH":"4517","MEAN_ELEMENT_THEORY":"SGP4","PERIAPSIS":"545.679","TLE_LINE1":"1 47675U 21012BH  21334.92555593 -.00000062  00000-0  14783-4 0  9997","NORAD_CAT_ID":"47675","ARG_OF_PERICENTER":"70.2949","EPHEMERIS_TYPE":"0","MEAN_MOTION_DDOT":"0.0000000000000","TLE_LINE2":"2 47675  53.0547 213.6670 0002244  70.2949 289.8282 15.06393626 45170","RA_OF_ASC_NODE":"213.6670","SEMIMAJOR_AXIS":"6925.368","LAUNCH_DATE":"2021-02-16","APOAPSIS":"548.787","OBJECT_ID":"2021-012BH","CLASSIFICATION_TYPE":"U","MEAN_MOTION":"15.06393626","ELEMENT_SET_NO":"999","MEAN_MOTION_DOT":"-0.00000062","ECCENTRICITY":"0.00022440","FILE":"3228256","TIME_SYSTEM":"UTC","DECAY_DATE":null,"COUNTRY_CODE":"US","CENTER_NAME":"EARTH","RCS_SIZE":"LARGE","REF_FRAME":"TEME","OBJECT_TYPE":"PAYLOAD"},{"FILE":"3228256","TIME_SYSTEM":"UTC","DECAY_DATE":null,"CENTER_NAME":"EARTH","COUNTRY_CODE":"US","RCS_SIZE":"LARGE","REF_FRAME":"TEME","OBJECT_TYPE":"PAYLOAD","ECCENTRICITY":"0.00071510","ELEMENT_SET_NO":"999","MEAN_MOTION_DOT":"-0.00885850","MEAN_MOTION":"15.71926092","OBJECT_ID":"2021-012BJ","CLASSIFICATION_TYPE":"U","TLE_LINE2":"2 47676  53.0544 111.3256 0007151 270.7740  63.0183 15.71926092  3706","MEAN_MOTION_DDOT":"0.0000000000000","RA_OF_ASC_NODE":"111.3256","SEMIMAJOR_AXIS":"6731.530","APOAPSIS":"358.208","LAUNCH_DATE":"2021-02-16","REV_AT_EPOCH":"370","MEAN_ELEMENT_THEORY":"SGP4","PERIAPSIS":"348.581","TLE_LINE1":"1 47676U 21012BJ  21334.91667824 -.00885850  00000-0 -73731-2 0  9991","NORAD_CAT_ID":"47676","EPHEMERIS_TYPE":"0","ARG_OF_PERICENTER":"270.7740","OBJECT_NAME":"STARLINK-2083","EPOCH":"2021-11-30T22:00:00.999936","MEAN_ANOMALY":"63.0183","PERIOD":"91.607","INCLINATION":"53.0544","GP_ID":"190817780","BSTAR":"-0.00737310000000","SITE":"AFETR"},{"CLASSIFICATION_TYPE":"U","OBJECT_ID":"2021-012BK","APOAPSIS":"548.616","LAUNCH_DATE":"2021-02-16","RA_OF_ASC_NODE":"233.7316","SEMIMAJOR_AXIS":"6925.378","TLE_LINE2":"2 47677  53.0555 233.7316 0001982  73.8936 286.2271 15.06390236 44884","MEAN_MOTION_DDOT":"0.0000000000000","ARG_OF_PERICENTER":"73.8936","EPHEMERIS_TYPE":"0","NORAD_CAT_ID":"47677","TLE_LINE1":"1 47677U 21012BK  21334.91265675  .00000802  00000-0  72738-4 0  9992","PERIAPSIS":"545.871","MEAN_ELEMENT_THEORY":"SGP4","REV_AT_EPOCH":"4488","SITE":"AFETR","GP_ID":"190816528","BSTAR":"0.00007273800000","INCLINATION":"53.0555","PERIOD":"95.593","MEAN_ANOMALY":"286.2271","EPOCH":"2021-11-30T21:54:13.543200","OBJECT_NAME":"STARLINK-2090","OBJECT_TYPE":"PAYLOAD","RCS_SIZE":"LARGE","REF_FRAME":"TEME","DECAY_DATE":null,"CENTER_NAME":"EARTH","COUNTRY_CODE":"US","TIME_SYSTEM":"UTC","FILE":"3228256","ECCENTRICITY":"0.00019820","MEAN_MOTION_DOT":"0.00000802","ELEMENT_SET_NO":"999","MEAN_MOTION":"15.06390236"},{"ELEMENT_SET_NO":"999","MEAN_MOTION_DOT":"-0.00000088","MEAN_MOTION":"15.06397169","FILE":"3227572","TIME_SYSTEM":"UTC","CENTER_NAME":"EARTH","DECAY_DATE":null,"COUNTRY_CODE":"US","RCS_SIZE":"LARGE","OBJECT_TYPE":"PAYLOAD","REF_FRAME":"TEME","ECCENTRICITY":"0.00019250","REV_AT_EPOCH":"4478","MEAN_ELEMENT_THEORY":"SGP4","PERIAPSIS":"545.889","TLE_LINE1":"1 47679U 21012BM  21334.14503063 -.00000088  00000-0  13010-4 0  9990","NORAD_CAT_ID":"47679","ARG_OF_PERICENTER":"75.9715","EPHEMERIS_TYPE":"0","OBJECT_NAME":"STARLINK-2095","EPOCH":"2021-11-30T03:28:50.646432","MEAN_ANOMALY":"284.1488","PERIOD":"95.592","INCLINATION":"53.0553","SITE":"AFETR","GP_ID":"190784559","BSTAR":"0.00001301000000","OBJECT_ID":"2021-012BM","CLASSIFICATION_TYPE":"U","TLE_LINE2":"2 47679  53.0553 237.1854 0001925  75.9715 284.1488 15.06397169 44782","MEAN_MOTION_DDOT":"0.0000000000000","SEMIMAJOR_AXIS":"6925.357","RA_OF_ASC_NODE":"237.1854","APOAPSIS":"548.555","LAUNCH_DATE":"2021-02-16"},{"TIME_SYSTEM":"UTC","FILE":"3228256","RCS_SIZE":"LARGE","OBJECT_TYPE":"PAYLOAD","REF_FRAME":"TEME","DECAY_DATE":null,"CENTER_NAME":"EARTH","COUNTRY_CODE":"US","ECCENTRICITY":"0.00014500","ELEMENT_SET_NO":"999","MEAN_MOTION_DOT":"-0.00000285","MEAN_MOTION":"15.06399776","CLASSIFICATION_TYPE":"U","OBJECT_ID":"2021-017A","LAUNCH_DATE":"2021-03-04","APOAPSIS":"548.218","SEMIMAJOR_AXIS":"6925.349","RA_OF_ASC_NODE":"0.6018","TLE_LINE2":"2 47722  53.0576   0.6018 0001450  60.7846 299.3287 15.06399776 42836","MEAN_MOTION_DDOT":"0.0000000000000","PERIAPSIS":"546.210","MEAN_ELEMENT_THEORY":"SGP4","REV_AT_EPOCH":"4283","ARG_OF_PERICENTER":"60.7846","EPHEMERIS_TYPE":"0","NORAD_CAT_ID":"47722","TLE_LINE1":"1 47722U 21017A   21334.49657489 -.00000285  00000-0 -22912-6 0  9997","PERIOD":"95.592","MEAN_ANOMALY":"299.3287","EPOCH":"2021-11-30T11:55:04.070496","OBJECT_NAME":"STARLINK-2068","GP_ID":"190817534","SITE":"AFETR","BSTAR":"-0.00000022912000","INCLINATION":"53.0576"},{"RCS_SIZE":"LARGE","OBJECT_TYPE":"PAYLOAD","REF_FRAME":"TEME","DECAY_DATE":null,"CENTER_NAME":"EARTH","COUNTRY_CODE":"US","TIME_SYSTEM":"UTC","FILE":"3228256","ECCENTRICITY":"0.00022320","MEAN_MOTION_DOT":"-0.00001324","ELEMENT_SET_NO":"999","MEAN_MOTION":"15.06394498","CLASSIFICATION_TYPE":"U","OBJECT_ID":"2021-017B","LAUNCH_DATE":"2021-03-04","APOAPSIS":"548.776","RA_OF_ASC_NODE":"295.1451","SEMIMAJOR_AXIS":"6925.365","MEAN_MOTION_DDOT":"0.0000000000000","TLE_LINE2":"2 47723  53.0528 295.1451 0002232  55.3516 304.7683 15.06394498 43725","ARG_OF_PERICENTER":"55.3516","EPHEMERIS_TYPE":"0","NORAD_CAT_ID":"47723","TLE_LINE1":"1 47723U 21017B   21334.59381975 -.00001324  00000-0 -69986-4 0  9998","PERIAPSIS":"545.685","MEAN_ELEMENT_THEORY":"SGP4","REV_AT_EPOCH":"4372","SITE":"AFETR","GP_ID":"190817785","BSTAR":"-0.00006998600000","INCLINATION":"53.0528","PERIOD":"95.592","MEAN_ANOMALY":"304.7683","EPOCH":"2021-11-30T14:15:06.026400","OBJECT_NAME":"STARLINK-2107"},{"OBJECT_TYPE":"PAYLOAD","RCS_SIZE":"LARGE","REF_FRAME":"TEME","COUNTRY_CODE":"US","DECAY_DATE":null,"CENTER_NAME":"EARTH","TIME_SYSTEM":"UTC","FILE":"3228256","ECCENTRICITY":"0.00020170","MEAN_MOTION_DOT":"0.00000290","ELEMENT_SET_NO":"999","MEAN_MOTION":"15.06399863","OBJECT_ID":"2021-017C","CLASSIFICATION_TYPE":"U","TLE_LINE2":"2 47724  53.0542 294.6873 0002017  58.2035 301.9150 15.06399863 43700","MEAN_MOTION_DDOT":"0.0000000000000","LAUNCH_DATE":"2021-03-04","APOAPSIS":"548.611","SEMIMAJOR_AXIS":"6925.349","RA_OF_ASC_NODE":"294.6873","NORAD_CAT_ID":"47724","TLE_LINE1":"1 47724U 21017C   21334.69701952  .00000290  00000-0  38404-4 0  9991","ARG_OF_PERICENTER":"58.2035","EPHEMERIS_TYPE":"0","REV_AT_EPOCH":"4370","PERIAPSIS":"545.817","MEAN_ELEMENT_THEORY":"SGP4","INCLINATION":"53.0542","GP_ID":"190816533","SITE":"AFETR","BSTAR":"0.00003840400000","EPOCH":"2021-11-30T16:43:42.486528","OBJECT_NAME":"STARLINK-2116","PERIOD":"95.592","MEAN_ANOMALY":"301.9150"},{"RA_OF_ASC_NODE":"4.2467","SEMIMAJOR_AXIS":"6925.384","LAUNCH_DATE":"2021-03-04","APOAPSIS":"548.220","TLE_LINE2":"2 47725  53.0575   4.2467 0001402  59.1883 300.9244 15.06388376 42753","MEAN_MOTION_DDOT":"0.0000000000000","CLASSIFICATION_TYPE":"U","OBJECT_ID":"2021-017D","MEAN_ANOMALY":"300.9244","PERIOD":"95.593","OBJECT_NAME":"STARLINK-2125","EPOCH":"2021-11-30T19:08:21.559200","GP_ID":"190816783","SITE":"AFETR","BSTAR":"0.00003434100000","INCLINATION":"53.0575","MEAN_ELEMENT_THEORY":"SGP4","PERIAPSIS":"546.278","REV_AT_EPOCH":"4275","EPHEMERIS_TYPE":"0","ARG_OF_PERICENTER":"59.1883","TLE_LINE1":"1 47725U 21017D   21334.79747175  .00000230  00000-0  34341-4 0  9990","NORAD_CAT_ID":"47725","ECCENTRICITY":"0.00014020","FILE":"3228256","TIME_SYSTEM":"UTC","DECAY_DATE":null,"COUNTRY_CODE":"US","CENTER_NAME":"EARTH","REF_FRAME":"TEME","RCS_SIZE":"LARGE","OBJECT_TYPE":"PAYLOAD","MEAN_MOTION":"15.06388376","ELEMENT_SET_NO":"999","MEAN_MOTION_DOT":"0.00000230"}];
